[{"OBJECT_NAME":"STARLINK-5708","OBJECT_ID":"2023-015X","EPOCH":"2026-03-09T14:28:56.059104","MEAN_MOTION":15.02528755,"ECCENTRICITY":0.0001159,"INCLINATION":43.0054,"RA_OF_ASC_NODE":326.2339,"ARG_OF_PERICENTER":261.8958,"MEAN_ANOMALY":98.1752,"EPHEMERIS_TYPE":0,"CLASSIFICATION_TYPE":"U","NORAD_CAT_ID":55470,"ELEMENT_SET_NO":999,"REV_AT_EPOCH":17074,"BSTAR":0.00020067,"MEAN_MOTION_DOT":2.508e-5,"MEAN_MOTION_DDOT":0},{"OBJECT_NAME":"OBJECT J","OBJECT_ID":"2025-292J","EPOCH":"2026-03-09T21:49:22.925568","MEAN_MOTION":15.05538385,"ECCENTRICITY":0.00147146,"INCLINATION":97.6397,"RA_OF_ASC_NODE":145.6338,"ARG_OF_PERICENTER":337.2811,"MEAN_ANOMALY":22.7762,"EPHEMERIS_TYPE":0,"CLASSIFICATION_TYPE":"U","NORAD_CAT_ID":67001,"ELEMENT_SET_NO":999,"REV_AT_EPOCH":1350,"BSTAR":0.00042553792,"MEAN_MOTION_DOT":6.079e-5,"MEAN_MOTION_DDOT":0}]
